SENTINEL-6              
1 46984U 20086A   24227.78860791 -.00000050  00000+0  48864-4 0  9999
2 46984  66.0407  89.5568 0007773 269.7104  90.3021 12.80930602174457
